# From MPEC 2023-CD7
355P/LINEAR-NEAT,e,11.0461,51.4217,336.2498,3.466647,0.1527002,0.50789156,89.7616,11/10.0/2025,2000,g 15.5,2.0
# From MPC188420
356P/WISE,e,9.6398,160.7448,226.2875,4.151229,0.1165303,0.35573847,335.0136,11/10.0/2025,2000,g 14.0,4.0
# From MPC114609
357P/Hill,e,6.3119,44.5603,1.5261,4.454458,0.1048363,0.43592486,284.6454,11/10.0/2025,2000,g 15.5,4.0
# From MPEC 2024-EF7
358P/PANSTARRS,e,11.0667,85.6656,299.3045,3.145431,0.1766786,0.23943521,129.2667,11/10.0/2025,2000,g 18.0,4.0
# From MPC110086
359P/LONEOS,e,10.2619,149.7367,200.2679,4.642945,0.0985176,0.32299258,295.7233,11/10.0/2025,2000,g 13.5,4.0
# From MPEC 2025-A40
360P/WISE,e,24.1095,2.0901,354.3908,3.700050,0.1384818,0.49961396,55.6830,11/10.0/2025,2000,g 19.5,6.0
# From MPEC 2023-CD7
361P/Spacewatch,e,13.8960,203.2151,219.1611,4.932734,0.0899648,0.43944990,241.2516,11/10.0/2025,2000,g 12.0,4.0
# From MPC184420
363P/Lemmon,e,5.3938,146.7531,340.7841,3.575455,0.1457831,0.51861108,52.7363,11/10.0/2025,2000,g 17.5,4.0
# From MPEC 2024-M41
364P/PANSTARRS,e,11.8413,45.7039,212.9429,2.903100,0.1992559,0.71628894,181.9935,11/10.0/2025,2000,g 17.0,2.0
# From MPC111775
365P/PANSTARRS,e,9.8495,86.6531,67.4168,3.156130,0.1757809,0.58178194,134.0100,11/10.0/2025,2000,g 17.0,4.0
# From MPC114610
366P/Spacewatch,e,8.8564,70.7215,152.9824,3.500352,0.1505000,0.34869432,42.6124,11/10.0/2025,2000,g 15.0,4.0
# From MPC112395
367P/Catalina,e,8.4588,58.6580,172.6648,3.511577,0.1497789,0.28017341,45.3136,11/10.0/2025,2000,g 17.5,2.0
# From MPC114610
368P/NEAT,e,15.4819,257.8599,118.9817,5.536154,0.0756644,0.62534003,197.7426,11/10.0/2025,2000,g 14.0,4.0
# From MPC114610
369P/Hill,e,10.3181,47.2758,13.2610,4.378061,0.1075923,0.55584378,277.2541,11/10.0/2025,2000,g 15.0,4.0
# From MPEC 2021-F20
370P/NEAT,e,19.4119,55.0889,356.7985,6.441374,0.0602887,0.61492243,163.2224,11/10.0/2025,2000,g 13.0,4.0
# From MPC114610
371P/LINEAR-Skiff,e,17.3824,67.2833,308.5634,4.180470,0.1153099,0.47645705,298.6487,11/10.0/2025,2000,g 16.0,4.0
# From MPEC 2020-K19
372P/McNaught,e,9.5025,27.5453,325.9116,4.513619,0.1027819,0.15105152,264.8172,11/10.0/2025,2000,g 13.5,4.0
# From MPEC 2021-F20
373P/Rinner,e,13.7714,231.9262,221.1694,3.796286,0.1332495,0.39383358,320.1581,11/10.0/2025,2000,g 14.5,4.0
# From MPC114610
374P/Larson,e,10.7590,7.8484,51.6167,4.971447,0.0889160,0.46349301,221.4906,11/10.0/2025,2000,g 14.0,4.0
# From MPEC 2021-F20
375P/Hill,e,17.3789,359.8071,119.4868,5.545016,0.0754831,0.66038119,189.6483,11/10.0/2025,2000,g 16.0,4.0
# From MPEC 2024-RQ6
376P/LONEOS,e,1.1662,312.8545,285.3078,5.754256,0.0714036,0.51385757,160.6965,11/10.0/2025,2000,g 12.5,4.0
# From MPEC 2022-N37
377P/Scotti,e,9.0397,225.8641,354.9486,6.694055,0.0569076,0.25170510,110.9099,11/10.0/2025,2000,g  9.5,4.0
# From MPEC 2025-A40
378P/McNaught,e,19.1588,93.7921,193.2650,6.286045,0.0625371,0.46292640,116.4612,11/10.0/2025,2000,g 12.0,4.0
# From MPC115889
379P/Spacewatch,e,12.4370,30.4437,184.7232,3.482835,0.1516369,0.35018234,344.0972,11/10.0/2025,2000,g 15.0,4.0
# From MPEC 2023-C45
380P/PANSTARRS,e,8.0396,127.6497,87.4825,4.450679,0.1049699,0.33301143,254.8386,11/10.0/2025,2000,g 12.5,4.0
# From MPEC 2021-J28
381P/LINEAR-Spacewatch,e,28.3264,173.3315,173.8387,7.145286,0.0516030,0.68028884,115.5236,11/10.0/2025,2000,g 17.5,2.0
# From MPC182891
382P/Larson,e,8.2961,169.5749,162.7369,5.884848,0.0690401,0.26289845,102.0953,11/10.0/2025,2000,g  8.0,4.0
# From MPEC 2022-OB6
383P/Christensen,e,12.3154,207.8530,133.7124,3.549401,0.1473911,0.59842534,325.4228,11/10.0/2025,2000,g 18.0,4.0
# From MPC182891
384P/Kowalski,e,7.2841,354.1876,37.6969,2.897138,0.1998713,0.61620115,83.3286,11/10.0/2025,2000,g 19.5,4.0
# From MPEC 2021-F20
385P/Hill,e,16.8211,357.0199,44.4825,4.289237,0.1109517,0.40171003,249.1467,11/10.0/2025,2000,g 13.0,4.0
# From MPEC 2021-L04
386P/PANSTARRS,e,15.2486,134.9171,353.1233,4.048402,0.1209981,0.41764979,230.6862,11/10.0/2025,2000,g 14.5,4.0
# From MPEC 2021-J28
387P/Boattini,e,8.9372,259.2397,162.8586,4.797604,0.0937924,0.73686805,211.3813,11/10.0/2025,2000,g 15.0,4.0
# From MPEC 2021-S45
388P/Gibbs,e,23.8718,36.9945,42.3962,5.240920,0.0821472,0.61931392,188.7561,11/10.0/2025,2000,g 13.0,4.0
# From MPEC 2022-OB6
389P/Siding Spring,e,160.0764,218.8337,249.2923,5.629047,0.0737992,0.70592966,157.9786,11/10.0/2025,2000,g 16.0,4.0
# From MPEC 2024-EF7
390P/Gibbs,e,18.5160,152.1835,232.5840,5.818863,0.0702177,0.70639202,144.5822,11/10.0/2025,2000,g 12.0,4.0
# From MPEC 2021-F20
391P/Kowalski,e,21.2564,124.7686,186.8039,4.692852,0.0969502,0.11830164,271.5536,11/10.0/2025,2000,g  8.0,4.0
# From MPEC 2021-J28
392P/LINEAR,e,4.9271,24.7776,72.0046,6.143195,0.0647310,0.68393354,132.4822,11/10.0/2025,2000,g 14.5,4.0
# From MPC182892
393P/Spacewatch-Hill,e,16.7810,36.4041,329.1643,4.801778,0.0936701,0.11880891,206.4380,11/10.0/2025,2000,g 11.0,4.0
# From MPEC 2020-KB7
394P/PANSTARRS,e,8.5277,98.0910,54.4930,4.325422,0.1095624,0.36860348,237.7301,11/10.0/2025,2000,g 16.0,2.4
# From MPC182892
395P/Catalina-NEAT,e,3.5671,220.9397,100.7850,7.203410,0.0509797,0.41058788,69.2972,11/10.0/2025,2000,g 10.0,4.0
# From MPEC 2020-KB7
396P/,e,5.4438,136.6027,8.3187,6.798359,0.0556030,0.41722215,125.8875,11/10.0/2025,2000,g 12.0,4.0
# From MPEC 2022-OB6
397P/Lemmon,e,10.9182,8.1989,14.5920,3.832537,0.1313634,0.40441813,258.6743,11/10.0/2025,2000,g 12.0,4.0
# From MPC188420
398P/Boattini,e,11.0283,127.4068,320.2957,3.123803,0.1785166,0.58377661,317.1662,11/10.0/2025,2000,g 15.5,4.0
# From MPEC 2023-XP6
399P/PANSTARRS,e,13.3141,207.1066,214.4704,3.793763,0.1333825,0.44717764,217.5740,11/10.0/2025,2000,g 14.0,4.0
# From MPEC 2024-TD8
400P/PANSTARRS,e,10.9251,176.3347,238.9760,3.561870,0.1466179,0.40951272,253.9709,11/10.0/2025,2000,g 15.5,2.8
# From MPEC 2022-K19
401P/McNaught,e,12.8012,359.9161,309.3211,5.775979,0.0710012,0.57827534,154.0728,11/10.0/2025,2000,g 12.5,4.0
# From MPEC 2024-LE0
402P/LINEAR,e,30.8288,123.0361,327.0485,7.043609,0.0527243,0.43994933,75.1213,11/10.0/2025,2000,g  8.0,4.0
# From MPEC 2021-J28
403P/Catalina,e,12.3326,277.5593,163.9946,5.433556,0.0778176,0.50412468,146.2146,11/10.0/2025,2000,g 12.0,4.0
# From MPC184420
404P/Bressi,e,9.8038,260.0365,168.8686,4.716608,0.0962187,0.12388462,71.3366,11/10.0/2025,2000,g 10.0,4.0
# From MPEC 2021-L04
405P/Lemmon,e,9.3797,112.1947,3.3192,3.603333,0.1440945,0.69028081,256.4558,11/10.0/2025,2000,g 17.5,4.0
# From MPEC 2021-F20
406P/Gibbs,e,1.2096,352.3769,11.5588,3.579886,0.1455125,0.54087902,273.8606,11/10.0/2025,2000,g 17.0,4.0
# From MPEC 2022-YN2
407P/PANSTARRS-Fuls,e,4.8735,80.2435,92.9897,3.495534,0.1508112,0.37551533,321.1767,11/10.0/2025,2000,g 14.0,4.0
# From MPC186638
408P/Novichonok-Gerke,e,19.3489,189.4520,226.7277,4.746674,0.0953059,0.26823579,107.7883,11/10.0/2025,2000,g 11.0,4.0
# From MPEC 2022-ED3
409P/LONEOS-Hill,e,17.1538,143.6394,15.0391,6.032486,0.0665211,0.71039776,116.1450,11/10.0/2025,2000,g 14.0,4.0
# From MPEC 2022-M21
410P/NEAT-LINEAR,e,9.3882,139.9185,313.3226,6.655877,0.0573979,0.51166329,91.7846,11/10.0/2025,2000,g 12.5,4.0
# From MPC184420
411P/Christensen,e,12.3876,77.6487,46.5834,5.811982,0.0703425,0.58191624,123.0198,11/10.0/2025,2000,g 13.5,4.0
# From MPEC 2021-F20
412P/WISE,e,8.9283,0.8326,155.8324,3.112744,0.1794688,0.47911290,323.8227,11/10.0/2025,2000,g 17.0,4.0
# From MPC186638
413P/Larson,e,15.9537,38.9412,186.6954,3.736847,0.1364414,0.41749632,215.6214,11/10.0/2025,2000,g 14.0,4.0
# From MPC188420
414P/STEREO,e,23.4068,257.8151,210.7101,2.792334,0.2112288,0.81228777,9.4389,11/10.0/2025,2000,g 19.0,4.0
# From MPEC 2022-J42
415P/Tenagra,e,31.8142,160.2573,345.9110,4.107527,0.1183950,0.19569557,204.7067,11/10.0/2025,2000,g 12.0,4.0
# From MPC184420
416P/Scotti,e,3.3641,355.7240,134.4753,4.005913,0.1229283,0.45562499,212.2613,11/10.0/2025,2000,g 15.5,4.0
# From MPEC 2021-W31
417P/NEOWISE,e,9.9701,111.8458,126.4123,3.355719,0.1603340,0.54992127,271.4980,11/10.0/2025,2000,g 16.5,4.0
# From MPEC 2022-TA0
418P/LINEAR,e,5.7814,277.6035,307.3253,5.088633,0.0858623,0.66408717,127.5583,11/10.0/2025,2000,g 13.0,4.0
# From MPEC 2023-UR6
419P/PANSTARRS,e,2.7924,40.3856,187.7691,3.536902,0.1481731,0.27277479,219.4207,11/10.0/2025,2000,g 12.5,4.0
# From MPEC 2024-L77
420P/Hill,e,14.5173,173.4051,156.3990,5.474738,0.0769412,0.49496906,97.9433,11/10.0/2025,2000,g 11.5,4.0
# From MPEC 2021-W31
421P/McNaught,e,10.0750,55.3195,259.8435,5.074058,0.0862325,0.67437343,151.0919,11/10.0/2025,2000,g 14.0,4.0
# From MPEC 2024-N80
422P/Christensen,e,39.5800,36.0094,304.7394,6.272502,0.0627398,0.50547029,87.8235,11/10.0/2025,2000,g 11.0,4.0
# From MPEC 2023-FK0
423P/Lemmon,e,8.3411,33.3009,81.0725,6.184171,0.0640888,0.12280716,96.3663,11/10.0/2025,2000,g  8.0,4.0
# From MPEC 2022-CN4
424P/LaSagra,e,8.6805,51.2216,312.5472,4.421489,0.1060111,0.69015865,155.9937,11/10.0/2025,2000,g 17.0,4.0
# From MPEC 2024-C04
425P/Kowalski,e,16.4099,210.0908,201.0155,6.353341,0.0615461,0.54351648,93.0090,11/10.0/2025,2000,g 12.0,4.0
# From MPEC 2024-N80
426P/PANSTARRS,e,17.7840,280.3956,118.3909,3.186012,0.1733137,0.16092704,137.2297,11/10.0/2025,2000,g 13.5,4.0
# From MPEC 2023-J29
428P/Gibbs,e,8.5025,299.3066,36.8838,3.489025,0.1512335,0.51810142,248.3938,11/10.0/2025,2000,g 15.0,4.0
# From MPEC 2024-EF7
429P/LINEAR-Hill,e,7.5140,322.0024,75.7503,3.556265,0.1469647,0.49066271,206.9225,11/10.0/2025,2000,g 15.5,4.0
# From MPEC 2022-L66
430P/Scotti,e,4.4759,54.6399,94.4719,3.102811,0.1803313,0.50042542,259.3000,11/10.0/2025,2000,g 16.5,4.0
# From MPEC 2025-A40
431P/Scotti,e,22.3759,202.8326,200.0117,3.477347,0.1519960,0.47719366,207.5606,11/10.0/2025,2000,g 14.0,4.0
# From MPEC 2021-U31
432P/PANSTARRS,e,10.0673,239.1310,105.2439,3.038684,0.1860697,0.24075113,285.4984,11/10.0/2025,2000,g 17.0,4.0
# From MPEC 2024-D33
434P/Tenagra,e,6.3365,288.9095,128.4734,4.136658,0.1171466,0.27412824,172.7855,11/10.0/2025,2000,g 13.0,4.0
# From MPEC 2021-W31
435P/PANSTARRS,e,18.8747,98.5235,244.1884,3.021983,0.1876144,0.31748180,294.2153,11/10.0/2025,2000,g 17.0,4.0
